IRIDIUM 112             
1 41925U 17003J   24314.40358964  .00000775  00000+0  26979-3 0  9999
2 41925  86.3955 332.6915 0002193 102.2638 257.8804 14.34220646409486
IRIDIUM 111             
1 41926U 17003K   24313.76299196  .00001040  00000+0  36414-3 0  9990
2 41926  86.3959 333.0172 0002363  92.9625 267.1841 14.34215174409341
IRIDIUM 113             
1 42803U 17039A   24313.95225681  .00001105  00000+0  38742-3 0  9991
2 42803  86.4029 206.6987 0002144  93.4798 266.6643 14.34220310387301
IRIDIUM 123             
1 42804U 17039B   24314.06349027 -.00000002  00000+0 -77842-5 0  9999
2 42804  86.3990 238.1041 0002616  80.6184 279.5308 14.34216196386082
IRIDIUM 120             
1 42805U 17039C   24313.94592778  .00001364  00000+0  47974-3 0  9990
2 42805  86.4017 206.5601 0002061  75.6392 284.5033 14.34227461387296
IRIDIUM 115             
1 42806U 17039D   24313.82761636  .00001820  00000+0  53526-3 0  9996
2 42806  86.4558 206.6553 0002565  78.9268 281.2221 14.43262087389839
IRIDIUM 118             
1 42807U 17039E   24313.88591513  .00001207  00000+0  42401-3 0  9997
2 42807  86.3988 238.1787 0002049  84.4593 275.6836 14.34218403386058
IRIDIUM 117             
1 42808U 17039F   24314.18401633  .00000901  00000+0  31475-3 0  9994
2 42808  86.3987 238.0173 0002472  81.9084 278.2392 14.34216938386139
